GLOBALSTAR M024         
1 25883U 99043A   25179.63563692 -.00000111  00000+0 -16224-2 0  9996
2 25883  52.0052 354.7910 0002159 110.2392 328.2197 11.10168128116139
GLOBALSTAR M027         
1 25884U 99043B   25179.44804999 -.00000077  00000+0 -49405-3 0  9993
2 25884  52.0223  73.5144 0021962  10.7687 349.3573 11.04372068142481
GLOBALSTAR M054         
1 25885U 99043C   25179.82297578 -.00000072  00000+0 -28368-4 0  9996
2 25885  52.0102 198.0285 0005878 198.0119 332.5690 11.39224620120708
GLOBALSTAR M053         
1 25886U 99043D   25179.62322081 -.00000082  00000+0 -38136-3 0  9997
2 25886  51.9955 146.2332 0002943  94.4458  77.0415 11.27665798120737
GLOBALSTAR M058         
1 25907U 99049A   25179.45039318 -.00000102  00000+0 -23049-3 0  9996
2 25907  51.9952  79.0986 0001842 306.8797  53.1868 11.93199888542885
GLOBALSTAR M050         
1 25908U 99049B   25179.49907398 -.00000056  00000+0  36649-3 0  9990
2 25908  51.9994  85.7993 0009764  53.2751 122.8379 12.07454443149553
GLOBALSTAR M033         
1 25909U 99049C   25179.73545560 -.00000056  00000+0  34010-3 0  9997
2 25909  51.9927 316.1853 0012856 286.4982  73.4453 12.20293857169874
GLOBALSTAR M055         
1 25910U 99049D   25179.72024913 -.00000079  00000+0  12890-3 0  9999
2 25910  52.0040 326.4149 0007626 151.5651 208.5618 12.29429125169928
